COMMENT,ORIGINATOR,NORAD_CAT_ID,OBJECT_NAME,OBJECT_TYPE,CLASSIFICATION_TYPE,INTLDES,EPOCH,EPOCH_MICROSECONDS,MEAN_MOTION,ECCENTRICITY,INCLINATION,RA_OF_ASC_NODE,ARG_OF_PERICENTER,MEAN_ANOMALY,EPHEMERIS_TYPE,ELEMENT_SET_NO,REV_AT_EPOCH,BSTAR,MEAN_MOTION_DOT,MEAN_MOTION_DDOT,FILE,TLE_LINE0,TLE_LINE1,TLE_LINE2,OBJECT_ID,OBJECT_NUMBER,SEMIMAJOR_AXIS,PERIOD,APOGEE,PERIGEE,DECAYED
"GENERATED VIA SPACETRACK.ORG API","18 SPCS","48888","SPACEBEE-103","PAYLOAD","U","21059K","2023-10-20 08:18:15","630336","15.44368777","0.0004131","97.608","74.5894","209.1775","150.9242","0","999","12862","0.0016278","0.00075681","0","4043968","0 SPACEBEE-103","1 48888U 21059K   23293.34601424  .00075681  00000-0  16278-2 0  9999","2 48888  97.6080  74.5894 0004131 209.1775 150.9242 15.44368777128629","2021-059K","48888","6811.370","93.242","436.049","430.422","0"
"GENERATED VIA SPACETRACK.ORG API","18 SPCS","48888","SPACEBEE-103","PAYLOAD","U","21059K","2023-10-20 08:18:15","630336","15.44368777","0.0004131","97.608","74.5894","209.1775","150.9242","0","999","12862","0.0016278","0.00075681","0","4044291","0 SPACEBEE-103","1 48888U 21059K   23293.34601424  .00075681  00000-0  16278-2 0  9999","2 48888  97.6080  74.5894 0004131 209.1775 150.9242 15.44368777128629","2021-059K","48888","6811.370","93.242","436.049","430.422","0"
"GENERATED VIA SPACETRACK.ORG API","18 SPCS","48888","SPACEBEE-103","PAYLOAD","U","21059K","2023-10-20 22:17:57","691680","15.44457778","0.0004041","97.6081","75.1999","207.9437","152.1595","0","999","12871","0.0018187","0.00084922","0","4044750","0 SPACEBEE-103","1 48888U 21059K   23293.92913995  .00084922  00000-0  18187-2 0  9991","2 48888  97.6081  75.1999 0004041 207.9437 152.1595 15.44457778128719","2021-059K","48888","6811.109","93.237","435.726","430.221","0"
"GENERATED VIA SPACETRACK.ORG API","18 SPCS","48888","SPACEBEE-103","PAYLOAD","U","21059K","2023-10-21 09:11:01","398912","15.44547141","0.0003996","97.608","75.6738","207.781","152.3225","0","999","12878","0.0020077","0.00094152","0","4045875","0 SPACEBEE-103","1 48888U 21059K   23294.38265508  .00094152  00000-0  20077-2 0  9999","2 48888  97.6080  75.6738 0003996 207.7810 152.3225 15.44547141128788","2021-059K","48888","6810.846","93.231","435.433","429.989","0"
"GENERATED VIA SPACETRACK.ORG API","18 SPCS","48888","SPACEBEE-103","PAYLOAD","U","21059K","2023-10-21 09:11:01","398912","15.44547141","0.0003996","97.608","75.6738","207.781","152.3225","0","999","12878","0.0020077","0.00094152","0","4046008","0 SPACEBEE-103","1 48888U 21059K   23294.38265508  .00094152  00000-0  20077-2 0  9999","2 48888  97.6080  75.6738 0003996 207.7810 152.3225 15.44547141128788","2021-059K","48888","6810.846","93.231","435.433","429.989","0"
"GENERATED VIA SPACETRACK.ORG API","18 SPCS","48888","SPACEBEE-103","PAYLOAD","U","21059K","2023-10-21 15:24:11","97504","15.44584227","0.000397","97.6079","75.9453","207.3849","152.719","0","999","12882","0.0014601","0.00068305","0","4046385","0 SPACEBEE-103","1 48888U 21059K   23294.64179511  .00068305  00000-0  14601-2 0  9993","2 48888  97.6079  75.9453 0003970 207.3849 152.7190 15.44584227128829","2021-059K","48888","6810.737","93.229","435.306","429.898","0"
"GENERATED VIA SPACETRACK.ORG API","18 SPCS","48888","SPACEBEE-103","PAYLOAD","U","21059K","2023-10-21 15:24:11","97504","15.44584227","0.000397","97.6079","75.9453","207.3849","152.719","0","999","12882","0.0014601","0.00068305","0","4046563","0 SPACEBEE-103","1 48888U 21059K   23294.64179511  .00068305  00000-0  14601-2 0  9993","2 48888  97.6079  75.9453 0003970 207.3849 152.7190 15.44584227128829","2021-059K","48888","6810.737","93.229","435.306","429.898","0"
"GENERATED VIA SPACETRACK.ORG API","18 SPCS","48888","SPACEBEE-103","PAYLOAD","U","21059K","2023-10-21 23:10:37","191072","15.44647925","0.0003955","97.6077","76.2845","207.6705","152.4333","0","999","12887","0.0012948","0.00060633","0","4047181","0 SPACEBEE-103","1 48888U 21059K   23294.96570823  .00060633  00000-0  12948-2 0  9997","2 48888  97.6077  76.2845 0003955 207.6705 152.4333 15.44647925128879","2021-059K","48888","6810.550","93.225","435.108","429.721","0"
"GENERATED VIA SPACETRACK.ORG API","18 SPCS","48888","SPACEBEE-103","PAYLOAD","U","21059K","2023-10-22 08:30:19","447200","15.4469959","0.0003954","97.6077","76.691","205.6151","154.4901","0","999","12893","0.0010925","0.00051172","0","4047923","0 SPACEBEE-103","1 48888U 21059K   23295.35439175  .00051172  00000-0  10925-2 0  9996","2 48888  97.6077  76.6910 0003954 205.6151 154.4901 15.44699590128933","2021-059K","48888","6810.398","93.222","434.956","429.570","0"
"GENERATED VIA SPACETRACK.ORG API","18 SPCS","48888","SPACEBEE-103","PAYLOAD","U","21059K","2023-10-22 22:29:50","337888","15.44798299","0.0003796","97.6076","77.3014","203.8912","156.216","0","999","12902","0.0017044","0.00080453","0","4048538","0 SPACEBEE-103","1 48888U 21059K   23295.93738817  .00080453  00000-0  17044-2 0  9998","2 48888  97.6076  77.3014 0003796 203.8912 156.2160 15.44798299129028","2021-059K","48888","6810.108","93.216","434.558","429.388","0"
"GENERATED VIA SPACETRACK.ORG API","18 SPCS","48888","SPACEBEE-103","PAYLOAD","U","21059K","2023-10-23 04:42:56","465568","15.44834014","0.0003825","97.6075","77.5723","202.5594","157.5487","0","999","12906","0.0015218","0.00071832","0","4048950","0 SPACEBEE-103","1 48888U 21059K   23296.19648687  .00071832  00000-0  15218-2 0  9994","2 48888  97.6075  77.5723 0003825 202.5594 157.5487 15.44834014129067","2021-059K","48888","6810.003","93.214","434.473","429.263","0"
"GENERATED VIA SPACETRACK.ORG API","18 SPCS","48888","SPACEBEE-103","PAYLOAD","U","21059K","2023-10-23 07:49:29","337600","15.44854526","0.0003853","97.6074","77.708","201.9358","158.1725","0","999","12908","0.0014847","0.00070112","0","4050204","0 SPACEBEE-103","1 48888U 21059K   23296.32603400  .00070112  00000-0  14847-2 0  9990","2 48888  97.6074  77.7080 0003853 201.9358 158.1725 15.44854526129080","2021-059K","48888","6809.943","93.213","434.431","429.184","0"
"GENERATED VIA SPACETRACK.ORG API","18 SPCS","48888","SPACEBEE-103","PAYLOAD","U","21059K","2023-10-23 23:22:12","3456","15.44933513","0.0003811","97.6071","78.3866","200.5945","159.515","0","999","12918","0.0015197","0.00071976","0","4050867","0 SPACEBEE-103","1 48888U 21059K   23296.97375004  .00071976  00000-0  15197-2 0  9995","2 48888  97.6071  78.3866 0003811 200.5945 159.5150 15.44933513129189","2021-059K","48888","6809.710","93.208","434.171","428.980","0"
"GENERATED VIA SPACETRACK.ORG API","18 SPCS","48888","SPACEBEE-103","PAYLOAD","U","21059K","2023-10-24 14:54:51","523488","15.45014155","0.0003798","97.6071","79.0651","198.1358","161.9755","0","999","12928","0.0013295","0.00063057","0","4051588","0 SPACEBEE-103","1 48888U 21059K   23297.62142967  .00063057  00000-0  13295-2 0  9996","2 48888  97.6071  79.0651 0003798 198.1358 161.9755 15.45014155129285","2021-059K","48888","6809.473","93.203","433.925","428.752","0"
"GENERATED VIA SPACETRACK.ORG API","18 SPCS","48888","SPACEBEE-103","PAYLOAD","U","21059K","2023-10-25 20:26:46","536864","15.45173719","0.0003681","97.6071","80.3538","193.3048","166.8104","0","999","12947","0.0014524","0.00069324","0","4052131","0 SPACEBEE-103","1 48888U 21059K   23298.85192751  .00069324  00000-0  14524-2 0  9997","2 48888  97.6071  80.3538 0003681 193.3048 166.8104 15.45173719129473","2021-059K","48888","6809.005","93.193","433.376","428.363","0"
"GENERATED VIA SPACETRACK.ORG API","18 SPCS","48888","SPACEBEE-103","PAYLOAD","U","21059K","2023-10-25 20:26:46","536864","15.45173719","0.0003681","97.6071","80.3538","193.3048","166.8104","0","999","12947","0.0014524","0.00069324","0","4052988","0 SPACEBEE-103","1 48888U 21059K   23298.85192751  .00069324  00000-0  14524-2 0  9997","2 48888  97.6071  80.3538 0003681 193.3048 166.8104 15.45173719129473","2021-059K","48888","6809.005","93.193","433.376","428.363","0"
"GENERATED VIA SPACETRACK.ORG API","18 SPCS","48888","SPACEBEE-103","PAYLOAD","U","21059K","2023-10-26 08:52:47","371008","15.45251486","0.0003692","97.6074","80.8962","192.0739","168.0421","0","999","12955","0.0015552","0.00074483","0","4054082","0 SPACEBEE-103","1 48888U 21059K   23299.36999272  .00074483  00000-0  15552-2 0  9991","2 48888  97.6074  80.8962 0003692 192.0739 168.0421 15.45251486129550","2021-059K","48888","6808.776","93.189","433.155","428.127","0"
"GENERATED VIA SPACETRACK.ORG API","18 SPCS","48888","SPACEBEE-103","PAYLOAD","U","21059K","2023-10-26 21:18:45","801504","15.45342437","0.0003558","97.6074","81.4393","190.2881","169.8295","0","999","12963","0.0017967","0.00086461","0","4054421","0 SPACEBEE-103","1 48888U 21059K   23299.88803011  .00086461  00000-0  17967-2 0  9994","2 48888  97.6074  81.4393 0003558 190.2881 169.8295 15.45342437129638","2021-059K","48888","6808.509","93.183","432.797","427.952","0"
"GENERATED VIA SPACETRACK.ORG API","18 SPCS","48888","SPACEBEE-103","PAYLOAD","U","21059K","2023-10-27 05:04:58","471968","15.45400627","0.0003595","97.6076","81.7782","188.6475","171.4712","0","999","12968","0.0019364","0.0009346","0","4054927","0 SPACEBEE-103","1 48888U 21059K   23300.21178787  .00093460  00000-0  19364-2 0  9999","2 48888  97.6076  81.7782 0003595 188.6475 171.4712 15.45400627129680","2021-059K","48888","6808.338","93.180","432.651","427.756","0"
"GENERATED VIA SPACETRACK.ORG API","18 SPCS","48888","SPACEBEE-103","PAYLOAD","U","21059K","2023-10-27 08:11:27","237408","15.45425894","0.0003605","97.6077","81.9138","187.8423","172.277","0","999","12970","0.0018831","0.00090934","0","4055819","0 SPACEBEE-103","1 48888U 21059K   23300.34128747  .00090934  00000-0  18831-2 0  9995","2 48888  97.6077  81.9138 0003605 187.8423 172.2770 15.45425894129703","2021-059K","48888","6808.264","93.178","432.583","427.675","0"
